{
    "links": {
        "self": "http://www.neowsapp.com/rest/v1/neo/3802065?api_key=iIulBulltgU6a56xZRHN4H3l9WmuAYTsLGpBGhQ2"
    },
    "id": "3802065",
    "neo_reference_id": "3802065",
    "name": "(2018 FX3)",
    "designation": "2018 FX3",
    "nasa_jpl_url": "http://ssd.jpl.nasa.gov/sbdb.cgi?sstr=3802065",
    "absolute_magnitude_h": 24.6,
    "estimated_diameter": {
        "kilometers": {
            "estimated_diameter_min": 0.0319561887,
            "estimated_diameter_max": 0.0714562102
        },
        "meters": {
            "estimated_diameter_min": 31.9561886721,
            "estimated_diameter_max": 71.4562101727
        },
        "miles": {
            "estimated_diameter_min": 0.0198566489,
            "estimated_diameter_max": 0.0444008168
        },
        "feet": {
            "estimated_diameter_min": 104.8431420431,
            "estimated_diameter_max": 234.436392583
        }
    },
    "is_potentially_hazardous_asteroid": false,
    "close_approach_data": [
        {
            "close_approach_date": "2018-03-21",
            "close_approach_date_full": "2018-Mar-21 07:50",
            "epoch_date_close_approach": 1521618600000,
            "relative_velocity": {
                "kilometers_per_second": "15.0143899705",
                "kilometers_per_hour": "54051.8038937316",
                "miles_per_hour": "33585.6889249689"
            },
            "miss_distance": {
                "astronomical": "0.0942563735",
                "lunar": "36.6657292915",
                "kilometers": "14100552.709524445",
                "miles": "8761677.169329541"
            },
            "orbiting_body": "Earth"
        }
    ],
    "orbital_data": {
        "orbit_id": "2",
        "orbit_determination_date": "2018-03-27 06:20:59",
        "first_observation_date": "2018-03-20",
        "last_observation_date": "2018-03-27",
        "data_arc_in_days": 7,
        "observations_used": 31,
        "orbit_uncertainty": "9",
        "minimum_orbit_intersection": ".0854061",
        "jupiter_tisserand_invariant": "4.514",
        "epoch_osculation": "2458199.5",
        "eccentricity": ".2500489672204024",
        "semi_major_axis": "1.441148483666424",
        "inclination": "27.52054099681335",
        "ascending_node_longitude": "180.7928504084677",
        "orbital_period": "631.9191556910952",
        "perihelion_distance": "1.080790793714386",
        "perihelion_argument": "5.742261491068879",
        "aphelion_distance": "1.801506173618463",
        "perihelion_time": "2458202.771027476490",
        "mean_anomaly": "358.1365181274675",
        "mean_motion": ".5696931272898158",
        "equinox": "J2000",
        "orbit_class": {
            "orbit_class_type": "AMO",
            "orbit_class_description": "Near-Earth asteroid orbits similar to that of 1221 Amor",
            "orbit_class_range": "1.017 AU < q (perihelion) < 1.3 AU"
        }
    },
    "is_sentry_object": false
}